NORAD_CAT_ID,OBJECT_NAME,OBJECT_TYPE,EPOCH,MEAN_MOTION,ECCENTRICITY,INCLINATION,RA_OF_ASC_NODE,ARG_OF_PERICENTER,MEAN_ANOMALY,BSTAR,MEAN_MOTION_DOT,MEAN_MOTION_DDOT,TLE_LINE0,TLE_LINE1,TLE_LINE2,SEMIMAJOR_AXIS,PERIOD,APOGEE,PERIGEE,DECAYED
51468.0,STARLINK-3174,PAYLOAD,2022-10-23 18:07:20,15.08853693,0.0002041,53.218,53.9957,40.0582,320.056,7.6344e-05,9.27e-06,0.0,0 STARLINK-3174,1 51468U 22010N   22296.75509324  .00000927  00000-0  76344-4 0  9991,2 51468  53.2180  53.9957 0002041  40.0582 320.0560 15.08853693 40388,6917.839,95.437,541.115,538.2919999999998,0.0
51468.0,STARLINK-3174,PAYLOAD,2022-10-24 00:28:51,15.08868246,0.0001928,53.2178,52.8063,36.731,323.3814,-6.0761e-06,-3.85e-06,0.0,0 STARLINK-3174,1 51468U 22010N   22297.02004241 -.00000385  00000-0 -60761-5 0  9997,2 51468  53.2178  52.8063 0001928  36.7310 323.3814 15.08868246 41238,6917.794,95.436,540.993,538.325,0.0
51468.0,STARLINK-3174,PAYLOAD,2022-10-24 08:25:48,15.0883618,0.0001919,53.218,51.3181,25.9362,334.1726,5.3856e-06,-2.02e-06,0.0,0 STARLINK-3174,1 51468U 22010N   22297.35125928 -.00000202  00000-0  53856-5 0  9993,2 51468  53.2180  51.3181 0001919  25.9362 334.1726 15.08836180 40472,6917.892,95.438,541.085,538.43,0.0
51468.0,STARLINK-3174,PAYLOAD,2022-10-24 11:36:35,15.0882654,0.0001999,53.218,50.7239,32.1466,327.9647,-0.00014647,-2.618e-05,0.0,0 STARLINK-3174,1 51468U 22010N   22297.48374396 -.00002618  00000-0 -14647-3 0  9999,2 51468  53.2180  50.7239 0001999  32.1466 327.9647 15.08826540 41306,6917.922,95.438,541.169,538.404,0.0
51468.0,STARLINK-3174,PAYLOAD,2022-10-24 17:58:08,15.08814813,0.0002242,53.2175,49.5364,39.1448,320.9706,-0.0004717,-7.783e-05,0.0,0 STARLINK-3174,1 51468U 22010N   22297.74871138 -.00007783  00000-0 -47170-3 0  9999,2 51468  53.2175  49.5364 0002242  39.1448 320.9706 15.08814813 41347,6917.956999999999,95.439,541.373,538.271,0.0
51468.0,STARLINK-3174,PAYLOAD,2022-10-25 06:41:13,15.08819021,0.0001747,53.2169,47.1562,27.7408,332.3677,-0.00030592,-5.151e-05,0.0,0 STARLINK-3174,1 51468U 22010N   22298.27863188 -.00005151  00000-0 -30592-3 0  9991,2 51468  53.2169  47.1562 0001747  27.7408 332.3677 15.08819021 40611,6917.945,95.439,541.018,538.601,0.0
51468.0,STARLINK-3174,PAYLOAD,2022-10-25 17:48:55,15.08835966,0.0002129,53.2169,45.0745,37.3067,322.8073,8.317e-05,1.036e-05,0.0,0 STARLINK-3174,1 51468U 22010N   22298.74231181  .00001036  00000-0  83170-4 0  9992,2 51468  53.2169  45.0745 0002129  37.3067 322.8073 15.08835966 40681,6917.893,95.438,541.231,538.285,0.0
51468.0,STARLINK-3174,PAYLOAD,2022-10-26 11:18:10,15.08849734,0.0002203,53.2172,41.8041,35.3667,324.7471,0.00067645,0.00010497,0.0,0 STARLINK-3174,1 51468U 22010N   22299.47095364  .00010497  00000-0  67645-3 0  9993,2 51468  53.2172  41.8041 0002203  35.3667 324.7471 15.08849734 40798,6917.851,95.437,541.24,538.192,0.0
51468.0,STARLINK-3174,PAYLOAD,2022-10-26 19:15:05,15.08863396,0.0002871,53.2169,40.3199,35.0168,325.1013,0.00079842,0.0001245,0.0,0 STARLINK-3174,1 51468U 22010N   22299.80215239  .00012450  00000-0  79842-3 0  9998,2 51468  53.2169  40.3199 0002871  35.0168 325.1013 15.08863396 40849,6917.809,95.436,541.66,537.688,0.0
51468.0,STARLINK-3174,PAYLOAD,2022-10-27 06:22:47,15.08858907,0.0002209,53.2164,38.2351,41.2556,318.8602,0.00055928,8.629e-05,0.0,0 STARLINK-3174,1 51468U 22010N   22300.26582801  .00008629  00000-0  55928-3 0  9995,2 51468  53.2164  38.2351 0002209  41.2556 318.8602 15.08858907 41728,6917.823,95.436,541.216,538.159,0.0
51468.0,STARLINK-3174,PAYLOAD,2022-10-27 12:44:20,15.08847824,0.0002145999999999,53.2165,37.0462,27.3792,332.7313,0.00026206,3.886e-05,0.0,0 STARLINK-3174,1 51468U 22010N   22300.53078900  .00003886  00000-0  26206-3 0  9992,2 51468  53.2165  37.0462 0002146  27.3792 332.7313 15.08847824 41760,6917.856,95.437,541.206,538.237,0.0
51468.0,STARLINK-3174,PAYLOAD,2022-10-27 19:05:52,15.08846696,0.000213,53.2167,35.8564,35.9494,324.1641,0.00030495,4.569e-05,0.0,0 STARLINK-3174,1 51468U 22010N   22300.79574901  .00004569  00000-0  30495-3 0  9996,2 51468  53.2167  35.8564 0002130  35.9494 324.1641 15.08846696 40997,6917.86,95.437,541.198,538.251,0.0
51468.0,STARLINK-3174,PAYLOAD,2022-10-28 12:35:06,15.08850772,0.0002144,53.2168,32.5853,36.3185,323.7952,0.00036178,5.476e-05,0.0,0 STARLINK-3174,1 51468U 22010N   22301.52438612  .00005476  00000-0  36178-3 0  9998,2 51468  53.2168  32.5853 0002144  36.3185 323.7952 15.08850772 41104,6917.847,95.437,541.196,538.229,0.0
51468.0,STARLINK-3174,PAYLOAD,2022-10-28 17:21:16,15.08853,0.0002165,53.2168,31.693,37.1646,322.9495,0.00029693,4.442e-05,0.0,0 STARLINK-3174,1 51468U 22010N   22301.72310424  .00004442  00000-0  29693-3 0  9996,2 51468  53.2168  31.6930 0002165  37.1646 322.9495 15.08853000 41946,6917.840999999999,95.437,541.203,538.2080000000002,0.0
51468.0,STARLINK-3174,PAYLOAD,2022-10-29 09:15:07,15.08851909,0.0002195,53.2171,28.7193,37.5507,322.5638,0.00020796,3.024e-05,0.0,0 STARLINK-3174,1 51468U 22010N   22302.38550066  .00003024  00000-0  20796-3 0  9997,2 51468  53.2171  28.7193 0002195  37.5507 322.5638 15.08851909 41234,6917.844,95.437,541.227,538.191,0.0
51468.0,STARLINK-3174,PAYLOAD,2022-10-29 17:12:02,15.08854818,0.000221,53.2172,27.2327,37.5067,322.6079,0.00024516,3.617e-05,0.0,0 STARLINK-3174,1 51468U 22010N   22302.71669717  .00003617  00000-0  24516-3 0  9990,2 51468  53.2172  27.2327 0002210  37.5067 322.6079 15.08854818 41284,6917.835,95.437,541.229,538.1709999999998,0.0
51468.0,STARLINK-3174,PAYLOAD,2022-10-30 10:41:17,15.08838427,0.0001884,53.2168,23.9605,44.674,315.4403,0.0004506,6.890000000000001e-05,0.0,0 STARLINK-3174,1 51468U 22010N   22303.44533689  .00006890  00000-0  45060-3 0  9992,2 51468  53.2168  23.9605 0001884  44.6740 315.4403 15.08838427 41395,6917.885,95.438,541.054,538.447,0.0
51468.0,STARLINK-3174,PAYLOAD,2022-10-30 17:02:49,15.08834353,0.0002237,53.2172,22.772,36.0912,324.0231,-0.00018667,-3.258e-05,0.0,0 STARLINK-3174,1 51468U 22010N   22303.71029994 -.00003258  00000-0 -18667-3 0  9991,2 51468  53.2172  22.7720 0002237  36.0912 324.0231 15.08834353 41438,6917.898,95.438,541.31,538.215,0.0
51468.0,STARLINK-3174,PAYLOAD,2022-10-31 12:07:28,15.08826103,0.0002211999999999,53.2179,19.2048,30.9572,329.1551,-7.6459e-05,-1.504e-05,0.0,0 STARLINK-3174,1 51468U 22010N   22304.50519665 -.00001504  00000-0 -76459-4 0  9994,2 51468  53.2179  19.2048 0002212  30.9572 329.1551 15.08826103 41555,6917.9230000000025,95.438,541.318,538.258,0.0
51468.0,STARLINK-3174,PAYLOAD,2022-10-31 16:53:37,15.08829352,0.0002121,53.217,18.3123,31.3016,328.8102,-0.0001102,-2.041e-05,0.0,0 STARLINK-3174,1 51468U 22010N   22304.70390980 -.00002041  00000-0 -11020-3 0  9992,2 51468  53.2170  18.3123 0002121  31.3016 328.8102 15.08829352 42397,6917.913000000001,95.438,541.245,538.311,0.0
51468.0,STARLINK-3174,PAYLOAD,2022-11-01 04:01:19,15.08840969,0.0002150999999999,53.2168,16.2305,29.5947,330.5166,0.00012981,1.778e-05,0.0,0 STARLINK-3174,1 51468U 22010N   22305.16758647  .00001778  00000-0  12981-3 0  9992,2 51468  53.2168  16.2305 0002151  29.5947 330.5166 15.08840969 42463,6917.877,95.437,541.23,538.254,0.0
51468.0,STARLINK-3174,PAYLOAD,2022-11-01 11:58:15,15.08841082,0.0002256999999999,53.2167,14.7435,27.7221,332.3891,0.00038597,5.86e-05,0.0,0 STARLINK-3174,1 51468U 22010N   22305.49879127  .00005860  00000-0  38597-3 0  9992,2 51468  53.2167  14.7435 0002257  27.7221 332.3891 15.08841082 41709,6917.877,95.437,541.303,538.181,0.0
51468.0,STARLINK-3174,PAYLOAD,2022-11-01 16:44:24,15.08852386,0.0002239,53.2168,13.8515,28.3634,331.7479,0.00072748,0.00011313,0.0,0 STARLINK-3174,1 51468U 22010N   22305.69751112  .00011313  00000-0  72748-3 0  9993,2 51468  53.2168  13.8515 0002239  28.3634 331.7479 15.08852386 41731,6917.843000000003,95.437,541.256,538.159,0.0
51468.0,STARLINK-3174,PAYLOAD,2022-11-02 11:49:02,15.0883818,0.0002195999999999,53.2169,10.283,27.392,332.7187,2.2591e-05,7.1e-07,0.0,0 STARLINK-3174,1 51468U 22010N   22306.49239187  .00000071  00000-0  22591-4 0  9996,2 51468  53.2169  10.2830 0002196  27.3920 332.7187 15.08838180 42668,6917.886,95.438,541.27,538.232,0.0
51468.0,STARLINK-3174,PAYLOAD,2022-11-02 16:35:13,15.08822182,0.0002241,53.2173,9.3913,26.9444,333.1664,9.9933e-05,1.302e-05,0.0,0 STARLINK-3174,1 51468U 22010N   22306.69112533  .00001302  00000-0  99933-4 0  9995,2 51468  53.2173   9.3913 0002241  26.9444 333.1664 15.08822182 42694,6917.935,95.439,541.35,538.25,0.0
51468.0,STARLINK-3174,PAYLOAD,2022-11-03 13:15:12,15.08855262,0.0002329,53.2175,5.5255,32.7571,327.3565,0.00020997,3.056e-05,0.0,0 STARLINK-3174,1 51468U 22010N   22307.55222425  .00003056  00000-0  20997-3 0  9994,2 51468  53.2175   5.5255 0002329  32.7571 327.3565 15.08855262 42821,6917.834,95.437,541.31,538.0880000000002,0.0
51468.0,STARLINK-3174,PAYLOAD,2022-11-04 09:55:12,15.08858629,0.0002422,53.2169,1.6601,32.8006,327.3136,0.00037325,5.660000000000003e-05,0.0,0 STARLINK-3174,1 51468U 22010N   22308.41333902  .00005660  00000-0  37325-3 0  9999,2 51468  53.2169   1.6601 0002422  32.8006 327.3136 15.08858629 42143,6917.823,95.436,541.364,538.013,0.0
51468.0,STARLINK-3174,PAYLOAD,2022-11-04 16:16:45,15.08851074,0.000238,53.2162,0.4704,32.1414,327.9723,0.00016126,2.28e-05,0.0,0 STARLINK-3174,1 51468U 22010N   22308.67830026  .00002280  00000-0  16126-3 0  9997,2 51468  53.2162   0.4704 0002380  32.1414 327.9723 15.08851074 42994,6917.847,95.437,541.3580000000002,538.065,0.0
51468.0,STARLINK-3174,PAYLOAD,2022-11-04 21:02:54,15.08852824,0.0002392,53.2163,359.5784,32.2137,327.9001,0.00015282,2.146e-05,0.0,0 STARLINK-3174,1 51468U 22010N   22308.87701825  .00002146  00000-0  15282-3 0  9996,2 51468  53.2163 359.5784 0002392  32.2137 327.9001 15.08852824 42215,6917.840999999999,95.437,541.361,538.0509999999998,0.0
